{
  "type": "FeatureCollection",
  "features": [
    {
      "type": "Feature",
      "properties": {
        "norad_id": 34056,
        "name": "COSMOS 2251 DEB",
        "group": "cosmos-2251-debris",
        "lat": 5.355106445541206,
        "lon": 94.80666193479176,
        "alt_km": 891.8065824014002,
        "timestamp": "2025-12-03T06:58:43.635618+00:00",
        "meta_object_name": "COSMOS 2251 DEB",
        "meta_object_id": "1993-036JT",
        "meta_epoch": "2025-12-02T16:15:49.307328",
        "meta_mean_motion": 14.20472105,
        "meta_eccentricity": 0.01249108,
        "meta_inclination": 74.0589,
        "meta_ra_of_asc_node": 94.3672,
        "meta_arg_of_pericenter": 144.7841,
        "meta_mean_anomaly": 327.7482,
        "meta_ephemeris_type": 0,
        "meta_classification_type": "U",
        "meta_norad_cat_id": 34056,
        "meta_element_set_no": 999,
        "meta_rev_at_epoch": 86268,
        "meta_bstar": 0.0019617914,
        "meta_mean_motion_dot": 4.532e-05,
        "meta_mean_motion_ddot": 0,
        "tle_line1": "1 34056U 93036JT  25336.67765402  .00004532  00000+0  19618-2 0  9995",
        "tle_line2": "2 34056  74.0589  94.3672 0124910 144.7841 327.7482 14.20472105862689"
      },
      "geometry": {
        "type": "Point",
        "coordinates": [
          94.80666193479176,
          5.355106445541206
        ]
      }
    },
    {
      "type": "Feature",
      "properties": {
        "norad_id": 34058,
        "name": "COSMOS 2251 DEB",
        "group": "cosmos-2251-debris",
        "lat": -7.743035213553863,
        "lon": 15.673987051958518,
        "alt_km": 772.6801036891702,
        "timestamp": "2025-12-03T06:58:43.635629+00:00",
        "meta_object_name": "COSMOS 2251 DEB",
        "meta_object_id": "1993-036JV",
        "meta_epoch": "2025-12-02T16:11:28.565952",
        "meta_mean_motion": 13.56055009,
        "meta_eccentricity": 0.0378367,
        "meta_inclination": 73.9322,
        "meta_ra_of_asc_node": 194.4266,
        "meta_arg_of_pericenter": 191.5807,
        "meta_mean_anomaly": 229.7626,
        "meta_ephemeris_type": 0,
        "meta_classification_type": "U",
        "meta_norad_cat_id": 34058,
        "meta_element_set_no": 999,
        "meta_rev_at_epoch": 83006,
        "meta_bstar": 0.00059626,
        "meta_mean_motion_dot": 6.4e-06,
        "meta_mean_motion_ddot": 0,
        "tle_line1": "1 34058U 93036JV  25336.67463618  .00000640  00000+0  59626-3 0  9991",
        "tle_line2": "2 34058  73.9322 194.4266 0378367 191.5807 229.7626 13.56055009830060"
      },
      "geometry": {
        "type": "Point",
        "coordinates": [
          15.673987051958518,
          -7.743035213553863
        ]
      }
    },
    {
      "type": "Feature",
      "properties": {
        "norad_id": 34059,
        "name": "COSMOS 2251 DEB",
        "group": "cosmos-2251-debris",
        "lat": -2.03104545840835,
        "lon": -156.48137014191,
        "alt_km": 715.9380819108801,
        "timestamp": "2025-12-03T06:58:43.635639+00:00",
        "meta_object_name": "COSMOS 2251 DEB",
        "meta_object_id": "1993-036JW",
        "meta_epoch": "2025-12-02T18:04:18.518304",
        "meta_mean_motion": 14.52852751,
        "meta_eccentricity": 0.0018862,
        "meta_inclination": 74.0387,
        "meta_ra_of_asc_node": 205.1141,
        "meta_arg_of_pericenter": 283.2647,
        "meta_mean_anomaly": 142.8841,
        "meta_ephemeris_type": 0,
        "meta_classification_type": "U",
        "meta_norad_cat_id": 34059,
        "meta_element_set_no": 999,
        "meta_rev_at_epoch": 88314,
        "meta_bstar": 0.00097385,
        "meta_mean_motion_dot": 3.989e-05,
        "meta_mean_motion_ddot": 0,
        "tle_line1": "1 34059U 93036JW  25336.75299211  .00003989  00000+0  97385-3 0  9990",
        "tle_line2": "2 34059  74.0387 205.1141 0018862 283.2647 142.8841 14.52852751883145"
      },
      "geometry": {
        "type": "Point",
        "coordinates": [
          -156.48137014191,
          -2.03104545840835
        ]
      }
    },
    {
      "type": "Feature",
      "properties": {
        "norad_id": 34061,
        "name": "COSMOS 2251 DEB",
        "group": "cosmos-2251-debris",
        "lat": 49.13414098823973,
        "lon": -59.82883185318659,
        "alt_km": 743.8723959415074,
        "timestamp": "2025-12-03T06:58:43.635650+00:00",
        "meta_object_name": "COSMOS 2251 DEB",
        "meta_object_id": "1993-036JY",
        "meta_epoch": "2025-12-02T21:01:16.474368",
        "meta_mean_motion": 14.40318546,
        "meta_eccentricity": 0.0020129,
        "meta_inclination": 74.039,
        "meta_ra_of_asc_node": 281.621,
        "meta_arg_of_pericenter": 0.3207,
        "meta_mean_anomaly": 60.994,
        "meta_ephemeris_type": 0,
        "meta_classification_type": "U",
        "meta_norad_cat_id": 34061,
        "meta_element_set_no": 999,
        "meta_rev_at_epoch": 88038,
        "meta_bstar": 0.00049556,
        "meta_mean_motion_dot": 1.548e-05,
        "meta_mean_motion_ddot": 0,
        "tle_line1": "1 34061U 93036JY  25336.87588512  .00001548  00000+0  49556-3 0  9997",
        "tle_line2": "2 34061  74.0390 281.6210 0020129   0.3207  60.9940 14.40318546880386"
      },
      "geometry": {
        "type": "Point",
        "coordinates": [
          -59.82883185318659,
          49.13414098823973
        ]
      }
    },
    {
      "type": "Feature",
      "properties": {
        "norad_id": 34062,
        "name": "COSMOS 2251 DEB",
        "group": "cosmos-2251-debris",
        "lat": -37.6103036977152,
        "lon": 143.86345315739436,
        "alt_km": 634.884832484001,
        "timestamp": "2025-12-03T06:58:43.635660+00:00",
        "meta_object_name": "COSMOS 2251 DEB",
        "meta_object_id": "1993-036JZ",
        "meta_epoch": "2025-12-02T11:47:39.246144",
        "meta_mean_motion": 14.78017729,
        "meta_eccentricity": 0.00764467,
        "meta_inclination": 74.0272,
        "meta_ra_of_asc_node": 158.1811,
        "meta_arg_of_pericenter": 239.1607,
        "meta_mean_anomaly": 149.1209,
        "meta_ephemeris_type": 0,
        "meta_classification_type": "U",
        "meta_norad_cat_id": 34062,
        "meta_element_set_no": 999,
        "meta_rev_at_epoch": 88444,
        "meta_bstar": 0.0028132635,
        "meta_mean_motion_dot": 0.00021356,
        "meta_mean_motion_ddot": 0,
        "tle_line1": "1 34062U 93036JZ  25336.49142646  .00021356  00000+0  28133-2 0  9996",
        "tle_line2": "2 34062  74.0272 158.1811 0076446 239.1607 149.1209 14.78017729884449"
      },
      "geometry": {
        "type": "Point",
        "coordinates": [
          143.86345315739436,
          -37.6103036977152
        ]
      }
    },
    {
      "type": "Feature",
      "properties": {
        "norad_id": 34064,
        "name": "COSMOS 2251 DEB",
        "group": "cosmos-2251-debris",
        "lat": -39.90521578647978,
        "lon": -85.45683539670128,
        "alt_km": 744.8766773992775,
        "timestamp": "2025-12-03T06:58:43.635670+00:00",
        "meta_object_name": "COSMOS 2251 DEB",
        "meta_object_id": "1993-036KB",
        "meta_epoch": "2025-12-02T15:21:41.756832",
        "meta_mean_motion": 14.42275504,
        "meta_eccentricity": 0.00217648,
        "meta_inclination": 74.0324,
        "meta_ra_of_asc_node": 289.6035,
        "meta_arg_of_pericenter": 357.5306,
        "meta_mean_anomaly": 183.5748,
        "meta_ephemeris_type": 0,
        "meta_classification_type": "U",
        "meta_norad_cat_id": 34064,
        "meta_element_set_no": 999,
        "meta_rev_at_epoch": 87996,
        "meta_bstar": 0.00076591195,
        "meta_mean_motion_dot": 2.508e-05,
        "meta_mean_motion_ddot": 0,
        "tle_line1": "1 34064U 93036KB  25336.64006663  .00002508  00000+0  76591-3 0  9993",
        "tle_line2": "2 34064  74.0324 289.6035 0021764 357.5306 183.5748 14.42275504879960"
      },
      "geometry": {
        "type": "Point",
        "coordinates": [
          -85.45683539670128,
          -39.90521578647978
        ]
      }
    },
    {
      "type": "Feature",
      "properties": {
        "norad_id": 34065,
        "name": "COSMOS 2251 DEB",
        "group": "cosmos-2251-debris",
        "lat": 59.355852728678954,
        "lon": 66.63119015145026,
        "alt_km": 761.0573055376017,
        "timestamp": "2025-12-03T06:58:43.635681+00:00",
        "meta_object_name": "COSMOS 2251 DEB",
        "meta_object_id": "1993-036KC",
        "meta_epoch": "2025-12-02T20:42:26.282016",
        "meta_mean_motion": 14.38043988,
        "meta_eccentricity": 0.0015916,
        "meta_inclination": 74.0356,
        "meta_ra_of_asc_node": 276.3129,
        "meta_arg_of_pericenter": 16.1469,
        "meta_mean_anomaly": 45.3956,
        "meta_ephemeris_type": 0,
        "meta_classification_type": "U",
        "meta_norad_cat_id": 34065,
        "meta_element_set_no": 999,
        "meta_rev_at_epoch": 88063,
        "meta_bstar": 0.00023182,
        "meta_mean_motion_dot": 6.76e-06,
        "meta_mean_motion_ddot": 0,
        "tle_line1": "1 34065U 93036KC  25336.86280419  .00000676  00000+0  23182-3 0  9993",
        "tle_line2": "2 34065  74.0356 276.3129 0015916  16.1469  45.3956 14.38043988880639"
      },
      "geometry": {
        "type": "Point",
        "coordinates": [
          66.63119015145026,
          59.355852728678954
        ]
      }
    }
  ]
}